[
  {
    "district": "Красный Яр",
    "postcode": "646176"
  },
  {
    "district": "Любино",
    "postcode": "646160"
  },
  {
    "district": "Авлы",
    "postcode": "646165"
  },
  {
    "district": "Матюшино",
    "postcode": "646170"
  },
  {
    "district": "Алексеевка",
    "postcode": "646150"
  },
  {
    "district": "Мокшино",
    "postcode": "646155"
  },
  {
    "district": "Алексеевский",
    "postcode": "646150"
  },
  {
    "district": "Новоархангелка",
    "postcode": "646165"
  },
  {
    "district": "Алексеевское Лесничество",
    "postcode": "646150"
  },
  {
    "district": "Новокиевка",
    "postcode": "646153"
  },
  {
    "district": "Андреевка",
    "postcode": "646171"
  },
  {
    "district": "Новокиевский",
    "postcode": "646153"
  },
  {
    "district": "Астрахановка",
    "postcode": "646171"
  },
  {
    "district": "Первомайский",
    "postcode": "646150"
  },
  {
    "district": "Бабайловка",
    "postcode": "646152"
  },
  {
    "district": "Пестровка",
    "postcode": "646175"
  },
  {
    "district": "Балашовка",
    "postcode": "646164"
  },
  {
    "district": "Покровка",
    "postcode": "646177"
  },
  {
    "district": "Барсуковка",
    "postcode": "646177"
  },
  {
    "district": "Политотдел",
    "postcode": "646178"
  },
  {
    "district": "Беляевка",
    "postcode": "646152"
  },
  {
    "district": "Помогаевка",
    "postcode": "646152"
  },
  {
    "district": "Боголюбовка",
    "postcode": "646171"
  },
  {
    "district": "Пролетарский",
    "postcode": "646164"
  },
  {
    "district": "Большаковка",
    "postcode": "646173"
  },
  {
    "district": "Протопоповка",
    "postcode": "646168"
  },
  {
    "district": "Большая Окуневка",
    "postcode": "646173"
  },
  {
    "district": "Рассвет",
    "postcode": "646178"
  },
  {
    "district": "Большемогильное",
    "postcode": "646171"
  },
  {
    "district": "Ровная Поляна",
    "postcode": "646168"
  },
  {
    "district": "Борятино",
    "postcode": "646164"
  },
  {
    "district": "Северо-Любинский",
    "postcode": "646177"
  },
  {
    "district": "Быструха",
    "postcode": "646175"
  },
  {
    "district": "Славинка",
    "postcode": "646153"
  },
  {
    "district": "Веселая Поляна",
    "postcode": "646155"
  },
  {
    "district": "Смоляновка",
    "postcode": "646153"
  },
  {
    "district": "Владимировка",
    "postcode": "646155"
  },
  {
    "district": "Степановка",
    "postcode": "646167"
  },
  {
    "district": "Восточный",
    "postcode": "646160"
  },
  {
    "district": "Субботинка",
    "postcode": "646155"
  },
  {
    "district": "Выборненовка",
    "postcode": "646164"
  },
  {
    "district": "Тавричанка",
    "postcode": "646175"
  },
  {
    "district": "Голубки",
    "postcode": "646150"
  },
  {
    "district": "Тарлык",
    "postcode": "646173"
  },
  {
    "district": "Драгунский",
    "postcode": "646150"
  },
  {
    "district": "Увало-Ядрино",
    "postcode": "646167"
  },
  {
    "district": "Замелетеновка",
    "postcode": "646152"
  },
  {
    "district": "Урожайный",
    "postcode": "646166"
  },
  {
    "district": "Ивановка",
    "postcode": "646175"
  },
  {
    "district": "Федоровка",
    "postcode": "646179"
  },
  {
    "district": "Казанка",
    "postcode": "646170"
  },
  {
    "district": "Филатовка",
    "postcode": "646152"
  },
  {
    "district": "Калиновка",
    "postcode": "646167"
  },
  {
    "district": "Центрально-Любинский",
    "postcode": "646151"
  },
  {
    "district": "Камышловский",
    "postcode": "646179"
  },
  {
    "district": "Чулково",
    "postcode": "646151"
  },
  {
    "district": "Канаковка",
    "postcode": "646153"
  },
  {
    "district": "Шандровка",
    "postcode": "646164"
  },
  {
    "district": "Капустино",
    "postcode": "646155"
  },
  {
    "district": "Шулаевка",
    "postcode": "646164"
  },
  {
    "district": "Квасовка",
    "postcode": "646170"
  },
  {
    "district": "Щучье",
    "postcode": "646150"
  },
  {
    "district": "Китайлы",
    "postcode": "646178"
  },
  {
    "district": "Южный",
    "postcode": "646166"
  },
  {
    "district": "Кочки",
    "postcode": "646168"
  },
  {
    "district": "Партсъезд",
    "postcode": "646179"
  },
  {
    "district": "Масляновка",
    "postcode": "646152"
  }
]